QIANFAN-9               
1 60387U 24140J   25357.20158931  .00000103  00000+0  14121-3 0  9991
2 60387  88.9776 298.2547 0016273 160.8406 199.3360 13.50983328 68740
QIANFAN-10              
1 60388U 24140K   25357.20577179  .00000113  00000+0  15585-3 0  9997
2 60388  88.9786 297.6025 0015479 138.2567 221.9768 13.50983763 68871
QIANFAN-11              
1 60389U 24140L   25357.16882051  .00000116  00000+0  16139-3 0  9990
2 60389  88.9712 298.1858 0014342 159.7203 200.4520 13.50980018 68524
QIANFAN-12              
1 60390U 24140M   25357.18930527  .00000098  00000+0  13326-3 0  9990
2 60390  88.9754 298.2315 0012886 167.1411 193.0072 13.50980839 68650
QIANFAN-13              
1 60391U 24140N   25357.16049731  .00000106  00000+0  14540-3 0  9996
2 60391  88.9767 298.3357 0012613 169.8259 190.3150 13.50981392 68673
QIANFAN-14              
1 60392U 24140P   25357.18510153  .00000107  00000+0  14734-3 0  9996
2 60392  88.9745 298.2286 0016274 171.5864 188.5563 13.50980893 68682
QIANFAN-15              
1 60393U 24140Q   25357.19339440  .00000108  00000+0  14885-3 0  9994
2 60393  88.9769 298.1866 0012576 155.6599 204.5148 13.50979685 68675
QIANFAN-16              
1 60394U 24140R   25357.18112633  .00000107  00000+0  14631-3 0  9995
2 60394  88.9772 298.3083 0014108 174.6304 185.5001 13.50984932 68588
